{
  "type": "FeatureCollection",
  "features": [
    {
      "type": "Feature",
      "properties": {
        "norad_id": 44334,
        "name": "EUTELSAT 7C",
        "group": "eutelsat",
        "lat": 0.049570936095391344,
        "lon": -113.22793049496788,
        "alt_km": 35773.23827325699,
        "timestamp": "2025-12-24T09:46:30.667034+00:00",
        "meta_object_name": "EUTELSAT 7C",
        "meta_object_id": "2019-034B",
        "meta_epoch": "2025-12-24T00:36:26.599104",
        "meta_mean_motion": 1.00270695,
        "meta_eccentricity": 0.0003149,
        "meta_inclination": 0.0727,
        "meta_ra_of_asc_node": 178.4457,
        "meta_arg_of_pericenter": 78.347,
        "meta_mean_anomaly": 212.1001,
        "meta_ephemeris_type": 0,
        "meta_classification_type": "U",
        "meta_norad_cat_id": 44334,
        "meta_element_set_no": 999,
        "meta_rev_at_epoch": 508,
        "meta_bstar": 0,
        "meta_mean_motion_dot": 6.9e-07,
        "meta_mean_motion_ddot": 0,
        "tle_line1": "1 44334U 19034B   25358.02530786  .00000069  00000+0  00000+0 0  9992",
        "tle_line2": "2 44334   0.0727 178.4457 0003149  78.3470 212.1001  1.00270695  5088"
      },
      "geometry": {
        "type": "Point",
        "coordinates": [
          -113.22793049496788,
          0.049570936095391344
        ]
      }
    },
    {
      "type": "Feature",
      "properties": {
        "norad_id": 44624,
        "name": "EUTELSAT 5 WEST B",
        "group": "eutelsat",
        "lat": -0.0763748824796282,
        "lon": -125.2154357649546,
        "alt_km": 35775.75860084526,
        "timestamp": "2025-12-24T09:46:30.667046+00:00",
        "meta_object_name": "EUTELSAT 5 WEST B",
        "meta_object_id": "2019-067A",
        "meta_epoch": "2025-12-24T00:44:38.545152",
        "meta_mean_motion": 1.00271344,
        "meta_eccentricity": 0.0003098,
        "meta_inclination": 0.0637,
        "meta_ra_of_asc_node": 341.7669,
        "meta_arg_of_pericenter": 290.2039,
        "meta_mean_anomaly": 187.0045,
        "meta_ephemeris_type": 0,
        "meta_classification_type": "U",
        "meta_norad_cat_id": 44624,
        "meta_element_set_no": 999,
        "meta_rev_at_epoch": 2268,
        "meta_bstar": 0,
        "meta_mean_motion_dot": -2.1e-07,
        "meta_mean_motion_ddot": 0,
        "tle_line1": "1 44624U 19067A   25358.03100168 -.00000021  00000+0  00000+0 0  9997",
        "tle_line2": "2 44624   0.0637 341.7669 0003098 290.2039 187.0045  1.00271344 22684"
      },
      "geometry": {
        "type": "Point",
        "coordinates": [
          -125.2154357649546,
          -0.0763748824796282
        ]
      }
    },
    {
      "type": "Feature",
      "properties": {
        "norad_id": 45027,
        "name": "EUTELSAT KONNECT",
        "group": "eutelsat",
        "lat": 0.013683106872407326,
        "lon": -113.01336998269302,
        "alt_km": 35784.14617539083,
        "timestamp": "2025-12-24T09:46:30.667057+00:00",
        "meta_object_name": "EUTELSAT KONNECT",
        "meta_object_id": "2020-005B",
        "meta_epoch": "2025-12-24T00:28:38.654112",
        "meta_mean_motion": 1.00264652,
        "meta_eccentricity": 0.0001271,
        "meta_inclination": 0.0693,
        "meta_ra_of_asc_node": 94.2188,
        "meta_arg_of_pericenter": 196.3336,
        "meta_mean_anomaly": 176.6119,
        "meta_ephemeris_type": 0,
        "meta_classification_type": "U",
        "meta_norad_cat_id": 45027,
        "meta_element_set_no": 999,
        "meta_rev_at_epoch": 2258,
        "meta_bstar": 0,
        "meta_mean_motion_dot": 6.9e-07,
        "meta_mean_motion_ddot": 0,
        "tle_line1": "1 45027U 20005B   25358.01989183  .00000069  00000+0  00000+0 0  9990",
        "tle_line2": "2 45027   0.0693  94.2188 0001271 196.3336 176.6119  1.00264652 22586"
      },
      "geometry": {
        "type": "Point",
        "coordinates": [
          -113.01336998269302,
          0.013683106872407326
        ]
      }
    },
    {
      "type": "Feature",
      "properties": {
        "norad_id": 49056,
        "name": "EUTELSAT QUANTUM",
        "group": "eutelsat",
        "lat": -0.03294749853149643,
        "lon": -72.48911503187826,
        "alt_km": 35771.925774607684,
        "timestamp": "2025-12-24T09:46:30.667069+00:00",
        "meta_object_name": "EUTELSAT QUANTUM",
        "meta_object_id": "2021-069B",
        "meta_epoch": "2025-12-24T00:05:38.704416",
        "meta_mean_motion": 1.00270684,
        "meta_eccentricity": 0.0003424,
        "meta_inclination": 0.0105,
        "meta_ra_of_asc_node": 9.8472,
        "meta_arg_of_pericenter": 271.7568,
        "meta_mean_anomaly": 220.2966,
        "meta_ephemeris_type": 0,
        "meta_classification_type": "U",
        "meta_norad_cat_id": 49056,
        "meta_element_set_no": 999,
        "meta_rev_at_epoch": 1617,
        "meta_bstar": 0,
        "meta_mean_motion_dot": 1.47e-06,
        "meta_mean_motion_ddot": 0,
        "tle_line1": "1 49056U 21069B   25358.00392019  .00000147  00000+0  00000+0 0  9999",
        "tle_line2": "2 49056   0.0105   9.8472 0003424 271.7568 220.2966  1.00270684 16171"
      },
      "geometry": {
        "type": "Point",
        "coordinates": [
          -72.48911503187826,
          -0.03294749853149643
        ]
      }
    },
    {
      "type": "Feature",
      "properties": {
        "norad_id": 53765,
        "name": "EUTELSAT KONNECT VHTS",
        "group": "eutelsat",
        "lat": 0.016614270479124178,
        "lon": -117.4782674256512,
        "alt_km": 35777.80798713715,
        "timestamp": "2025-12-24T09:46:30.667081+00:00",
        "meta_object_name": "EUTELSAT KONNECT VHTS",
        "meta_object_id": "2022-110A",
        "meta_epoch": "2025-12-24T00:36:38.599200",
        "meta_mean_motion": 1.00265361,
        "meta_eccentricity": 0.0002401,
        "meta_inclination": 0.0585,
        "meta_ra_of_asc_node": 98.5376,
        "meta_arg_of_pericenter": 151.8694,
        "meta_mean_anomaly": 214.2904,
        "meta_ephemeris_type": 0,
        "meta_classification_type": "U",
        "meta_norad_cat_id": 53765,
        "meta_element_set_no": 999,
        "meta_rev_at_epoch": 507,
        "meta_bstar": 0,
        "meta_mean_motion_dot": 3.7e-07,
        "meta_mean_motion_ddot": 0,
        "tle_line1": "1 53765U 22110A   25358.02544675  .00000037  00000+0  00000+0 0  9996",
        "tle_line2": "2 53765   0.0585  98.5376 0002401 151.8694 214.2904  1.00265361  5073"
      },
      "geometry": {
        "type": "Point",
        "coordinates": [
          -117.4782674256512,
          0.016614270479124178
        ]
      }
    },
    {
      "type": "Feature",
      "properties": {
        "norad_id": 54048,
        "name": "EUTELSAT HOTBIRD 13F",
        "group": "eutelsat",
        "lat": -0.04860528018545988,
        "lon": -107.23659653354434,
        "alt_km": 35791.49405036805,
        "timestamp": "2025-12-24T09:46:30.667092+00:00",
        "meta_object_name": "EUTELSAT HOTBIRD 13F",
        "meta_object_id": "2022-134A",
        "meta_epoch": "2025-12-24T00:28:38.654112",
        "meta_mean_motion": 1.00266249,
        "meta_eccentricity": 0.0002421,
        "meta_inclination": 0.0562,
        "meta_ra_of_asc_node": 289.1308,
        "meta_arg_of_pericenter": 76.1319,
        "meta_mean_anomaly": 107.6918,
        "meta_ephemeris_type": 0,
        "meta_classification_type": "U",
        "meta_norad_cat_id": 54048,
        "meta_element_set_no": 999,
        "meta_rev_at_epoch": 1162,
        "meta_bstar": 0,
        "meta_mean_motion_dot": 1.07e-06,
        "meta_mean_motion_ddot": 0,
        "tle_line1": "1 54048U 22134A   25358.01989183  .00000107  00000+0  00000+0 0  9991",
        "tle_line2": "2 54048   0.0562 289.1308 0002421  76.1319 107.6918  1.00266249 11625"
      },
      "geometry": {
        "type": "Point",
        "coordinates": [
          -107.23659653354434,
          -0.04860528018545988
        ]
      }
    },
    {
      "type": "Feature",
      "properties": {
        "norad_id": 54225,
        "name": "EUTELSAT HOTBIRD 13G",
        "group": "eutelsat",
        "lat": -0.00841457401835416,
        "lon": -107.18709237413435,
        "alt_km": 35785.34588493449,
        "timestamp": "2025-12-24T09:46:30.667104+00:00",
        "meta_object_name": "EUTELSAT HOTBIRD 13G",
        "meta_object_id": "2022-146A",
        "meta_epoch": "2025-12-24T00:28:38.654112",
        "meta_mean_motion": 1.00268836,
        "meta_eccentricity": 0.0001713,
        "meta_inclination": 0.0535,
        "meta_ra_of_asc_node": 227.8066,
        "meta_arg_of_pericenter": 307.349,
        "meta_mean_anomaly": 297.8001,
        "meta_ephemeris_type": 0,
        "meta_classification_type": "U",
        "meta_norad_cat_id": 54225,
        "meta_element_set_no": 999,
        "meta_rev_at_epoch": 571,
        "meta_bstar": 0,
        "meta_mean_motion_dot": 1.08e-06,
        "meta_mean_motion_ddot": 0,
        "tle_line1": "1 54225U 22146A   25358.01989183  .00000108  00000+0  00000+0 0  9992",
        "tle_line2": "2 54225   0.0535 227.8066 0001713 307.3490 297.8001  1.00268836  5716"
      },
      "geometry": {
        "type": "Point",
        "coordinates": [
          -107.18709237413435,
          -0.00841457401835416
        ]
      }
    }
  ]
}